NORAD_CAT_ID,OBJECT_NAME,OBJECT_TYPE,EPOCH,MEAN_MOTION,ECCENTRICITY,INCLINATION,RA_OF_ASC_NODE,ARG_OF_PERICENTER,MEAN_ANOMALY,BSTAR,MEAN_MOTION_DOT,MEAN_MOTION_DDOT,TLE_LINE0,TLE_LINE1,TLE_LINE2,SEMIMAJOR_AXIS,PERIOD,APOGEE,PERIGEE,DECAYED
53919.0,STARLINK-5023,PAYLOAD,2024-04-11 13:24:24,15.08866929,0.0001503,53.2163,203.5312,94.1906,265.9258,0.00093776,0.00014679,0.0,0 STARLINK-5023,1 53919U 22119AK  24102.55861544  .00014679  00000-0  93776-3 0  9991,2 53919  53.2163 203.5312 0001503  94.1906 265.9258 15.08866929 86581,6917.798,95.436,540.703,538.623,0.0
53919.0,STARLINK-5023,PAYLOAD,2024-04-11 18:10:33,15.08884979,0.0001483,53.2162,202.6391,92.9041,267.2121,0.0013591,0.00021435,0.0,0 STARLINK-5023,1 53919U 22119AK  24102.75732995  .00021435  00000-0  13591-2 0  9994,2 53919  53.2162 202.6391 0001483  92.9041 267.2121 15.08884979 86196,6917.743,95.435,540.634,538.582,0.0
53919.0,STARLINK-5023,PAYLOAD,2024-04-12 03:42:52,15.08847314,0.0001466,53.2164,200.8551,112.1145,248.0003,-0.00029265,-4.943e-05,0.0,0 STARLINK-5023,1 53919U 22119AK  24103.15477269 -.00004943  00000-0 -29265-3 0  9992,2 53919  53.2164 200.8551 0001466 112.1145 248.0003 15.08847314 86252,6917.858,95.437,540.737,538.709,0.0
53919.0,STARLINK-5023,PAYLOAD,2024-04-12 13:15:11,15.08848847,0.0001311,53.2161,199.0713,73.419,286.6946,0.0014764,0.00023293,0.0,0 STARLINK-5023,1 53919U 22119AK  24103.55221474  .00023293  00000-0  14764-2 0  9995,2 53919  53.2161 199.0713 0001311  73.4190 286.6946 15.08848847 86735,6917.853,95.437,540.625,538.811,0.0
53919.0,STARLINK-5023,PAYLOAD,2024-04-12 18:01:20,15.08856858,0.0001043,53.2159,198.1792,87.5859,272.5253,0.001624,0.00025664,0.0,0 STARLINK-5023,1 53919U 22119AK  24103.75093186  .00025664  00000-0  16240-2 0  9999,2 53919  53.2159 198.1792 0001043  87.5859 272.5253 15.08856858 86768,6917.829,95.436,540.415,538.972,0.0
53919.0,STARLINK-5023,PAYLOAD,2024-04-13 11:30:35,15.08837038,0.0001026,53.2158,194.9084,91.5451,268.5658,0.0013384,0.00021075,0.0,0 STARLINK-5023,1 53919U 22119AK  24104.47958143  .00021075  00000-0  13384-2 0  9990,2 53919  53.2158 194.9084 0001026  91.5451 268.5658 15.08837038 86458,6917.889,95.438,540.464,539.045,0.0
53919.0,STARLINK-5023,PAYLOAD,2024-04-14 11:21:23,15.08843421,0.0001024,53.215,190.4482,73.3789,286.7316,0.00083005,0.00012948,0.0,0 STARLINK-5023,1 53919U 22119AK  24105.47318662  .00012948  00000-0  83005-3 0  9994,2 53919  53.2150 190.4482 0001024  73.3789 286.7316 15.08843421 86606,6917.87,95.437,540.443,539.027,0.0
53919.0,STARLINK-5023,PAYLOAD,2024-04-15 12:47:33,15.08858624,0.0001214,53.2161,185.6908,82.6256,277.4874,0.0006384,9.892e-05,0.0,0 STARLINK-5023,1 53919U 22119AK  24106.53302113  .00009892  00000-0  63840-3 0  9995,2 53919  53.2161 185.6908 0001214  82.6256 277.4874 15.08858624 86764,6917.823,95.436,540.528,538.849,0.0
53919.0,STARLINK-5023,PAYLOAD,2024-04-15 14:22:56,15.08861012,0.0001217,53.216,185.3923,84.662,275.4511,0.00067863,0.00010535,0.0,0 STARLINK-5023,1 53919U 22119AK  24106.59925981  .00010535  00000-0  67863-3 0  9990,2 53919  53.2160 185.3923 0001217  84.6620 275.4511 15.08861012 87196,6917.816,95.436,540.523,538.839,0.0
53919.0,STARLINK-5023,PAYLOAD,2024-04-16 12:38:19,15.08867688,0.0001297,53.2153,181.2282,97.1359,262.9781,0.00079797,0.00012444,0.0,0 STARLINK-5023,1 53919U 22119AK  24107.52661337  .00012444  00000-0  79797-3 0  9996,2 53919  53.2153 181.2282 0001297  97.1359 262.9781 15.08867688 86911,6917.796,95.436,540.558,538.764,0.0
53919.0,STARLINK-5023,PAYLOAD,2024-04-17 04:32:10,15.08857162,0.0001499,53.2152,178.256,82.3364,277.7798,0.00097193,0.00015221,0.0,0 STARLINK-5023,1 53919U 22119AK  24108.18901255  .00015221  00000-0  97193-3 0  9991,2 53919  53.2152 178.2560 0001499  82.3364 277.7798 15.08857162 87011,6917.828,95.436,540.73,538.656,0.0
53919.0,STARLINK-5023,PAYLOAD,2024-04-17 10:53:43,15.08857045,0.0001368,53.2154,177.0654,87.8811,272.2337,0.00095234,0.00014908,0.0,0 STARLINK-5023,1 53919U 22119AK  24108.45397098  .00014908  00000-0  95234-3 0  9990,2 53919  53.2154 177.0654 0001368  87.8811 272.2337 15.08857045 87475,6917.828,95.436,540.64,538.747,0.0
53919.0,STARLINK-5023,PAYLOAD,2024-04-18 10:44:30,15.08838488,0.0001452,53.2165,172.6061,90.5688,269.547,0.00032442,4.879e-05,0.0,0 STARLINK-5023,1 53919U 22119AK  24109.44757750  .00004879  00000-0  32442-3 0  9993,2 53919  53.2165 172.6061 0001452  90.5688 269.5470 15.08838488 87205,6917.885,95.438,540.754,538.746,0.0
53919.0,STARLINK-5023,PAYLOAD,2024-04-19 10:35:18,15.08836038,0.0001709,53.2176,168.143,95.3966,264.7221,9.7493e-05,1.264e-05,0.0,0 STARLINK-5023,1 53919U 22119AK  24110.44118496  .00001264  00000-0  97493-4 0  9996,2 53919  53.2176 168.1430 0001709  95.3966 264.7221 15.08836038 87350,6917.892,95.438,540.94,538.575,0.0
53919.0,STARLINK-5023,PAYLOAD,2024-04-19 13:46:04,15.08836957,0.0001765,53.2175,167.5456,98.656,261.4632,0.00017434,2.487e-05,0.0,0 STARLINK-5023,1 53919U 22119AK  24110.57366545  .00002487  00000-0  17434-3 0  9994,2 53919  53.2175 167.5456 0001765  98.6560 261.4632 15.08836957 87796,6917.89,95.438,540.976,538.534,0.0
53919.0,STARLINK-5023,PAYLOAD,2024-04-20 13:36:51,15.08852313,0.0001787,53.2176,163.0858,97.5456,262.5739,0.00045092,6.898e-05,0.0,0 STARLINK-5023,1 53919U 22119AK  24111.56726188  .00006898  00000-0  45092-3 0  9998,2 53919  53.2176 163.0858 0001787  97.5456 262.5739 15.08852313 87941,6917.843,95.437,540.944,538.472,0.0
53919.0,STARLINK-5023,PAYLOAD,2024-04-21 03:55:20,15.08826068,0.0002043,53.2176,160.4118,94.5099,265.6127,-0.00018613,-3.248e-05,0.0,0 STARLINK-5023,1 53919U 22119AK  24112.16343414 -.00003248  00000-0 -18613-3 0  9999,2 53919  53.2176 160.4118 0002043  94.5099 265.6127 15.08826068 87614,6917.923,95.438,541.201,538.375,0.0
53919.0,STARLINK-5023,PAYLOAD,2024-04-21 13:27:39,15.08825316,0.0001406,53.2175,158.6273,101.1936,258.9214,3.7418e-05,3.07e-06,0.0,0 STARLINK-5023,1 53919U 22119AK  24112.56087793  .00000307  00000-0  37418-4 0  9994,2 53919  53.2175 158.6273 0001406 101.1936 258.9214 15.08825316 88091,6917.925,95.438,540.763,538.818,0.0
53919.0,STARLINK-5023,PAYLOAD,2024-04-22 03:46:08,15.08839359,0.0001255,53.2165,155.9526,106.0533,254.0598,0.0006561,0.00010169,0.0,0 STARLINK-5023,1 53919U 22119AK  24113.15704022  .00010169  00000-0  65610-3 0  9992,2 53919  53.2165 155.9526 0001255 106.0533 254.0598 15.08839359 87767,6917.882,95.438,540.616,538.879,0.0
53919.0,STARLINK-5023,PAYLOAD,2024-04-22 10:07:40,15.08855618,0.0001188,53.2161,154.7637,99.3947,260.718,0.0011539,0.00018132,0.0,0 STARLINK-5023,1 53919U 22119AK  24113.42199850  .00018132  00000-0  11539-2 0  9997,2 53919  53.2161 154.7637 0001188  99.3947 260.7180 15.08855618 88220,6917.833,95.437,540.519,538.876,0.0
53919.0,STARLINK-5023,PAYLOAD,2024-04-22 11:43:03,15.08859933,0.0001266,53.2163,154.4664,105.1956,254.9176,0.0012103,0.00019037,0.0,0 STARLINK-5023,1 53919U 22119AK  24113.48823706  .00019037  00000-0  12103-2 0  9990,2 53919  53.2163 154.4664 0001266 105.1956 254.9176 15.08859933 87810,6917.819,95.436,540.56,538.809,0.0
53919.0,STARLINK-5023,PAYLOAD,2024-04-23 11:33:50,15.08858777,0.0001181,53.2154,150.0056,84.1847,275.9279,0.00066442,0.00010308,0.0,0 STARLINK-5023,1 53919U 22119AK  24114.48183302  .00010308  00000-0  66442-3 0  9990,2 53919  53.2154 150.0056 0001181  84.1847 275.9279 15.08858777 87966,6917.823,95.436,540.505,538.871,0.0
53919.0,STARLINK-5023,PAYLOAD,2024-04-24 11:24:37,15.08843856,0.0001653,53.2163,145.5435,74.2456,285.8719,0.0003749,5.684e-05,0.0,0 STARLINK-5023,1 53919U 22119AK  24115.47543981  .00005684  00000-0  37490-3 0  9995,2 53919  53.2163 145.5435 0001653  74.2456 285.8719 15.08843856 88115,6917.869,95.437,540.877,538.59,0.0
53919.0,STARLINK-5023,PAYLOAD,2024-04-25 08:04:38,15.08851731,0.0001699,53.2151,141.6798,74.7392,285.3788,0.0004967,7.628e-05,0.0,0 STARLINK-5023,1 53919U 22119AK  24116.33655764  .00007628  00000-0  49670-3 0  9997,2 53919  53.2151 141.6798 0001699  74.7392 285.3788 15.08851731 88667,6917.845,95.437,540.885,538.534,0.0
53919.0,STARLINK-5023,PAYLOAD,2024-04-26 04:44:39,15.08846858,0.000161,53.2137,137.8161,80.3336,279.7838,0.00019104,2.754e-05,0.0,0 STARLINK-5023,1 53919U 22119AK  24117.19767539  .00002754  00000-0  19104-3 0  9990,2 53919  53.2137 137.8161 0001610  80.3336 279.7838 15.08846858 88371,6917.859,95.437,540.838,538.611,0.0
53919.0,STARLINK-5023,PAYLOAD,2024-04-26 11:06:11,15.08850603,0.0001535,53.2152,136.6247,83.2634,276.8533,0.00017954,2.571e-05,0.0,0 STARLINK-5023,1 53919U 22119AK  24117.46263232  .00002571  00000-0  17954-3 0  9999,2 53919  53.2152 136.6247 0001535  83.2634 276.8533 15.08850603 88833,6917.848,95.437,540.775,538.651,0.0
53919.0,STARLINK-5023,PAYLOAD,2024-04-27 04:35:27,15.08818186,0.0001834,53.2147,133.3502,90.5625,269.5577,0.0010861,0.00017029,0.0,0 STARLINK-5023,1 53919U 22119AK  24118.19128760  .00017029  00000-0  10861-2 0  9999,2 53919  53.2147 133.3502 0001834  90.5625 269.5577 15.08818186 88521,6917.947,95.439,541.081,538.543,0.0
53919.0,STARLINK-5023,PAYLOAD,2024-04-27 10:56:57,15.08853794,0.0001568,53.2157,132.1619,92.4079,267.7093,0.00015743,2.219e-05,0.0,0 STARLINK-5023,1 53919U 22119AK  24118.45622618  .00002219  00000-0  15743-3 0  9999,2 53919  53.2157 132.1619 0001568  92.4079 267.7093 15.08853794 88567,6917.838,95.437,540.788,538.619,0.0
53919.0,STARLINK-5023,PAYLOAD,2024-04-28 04:26:13,15.08835831,0.0001641,53.2154,128.889,103.512,256.6055,-2.9407e-05,-7.56e-06,0.0,0 STARLINK-5023,1 53919U 22119AK  24119.18487464 -.00000756  00000-0 -29407-4 0  9997,2 53919  53.2154 128.8890 0001641 103.5120 256.6055 15.08835831 88679,6917.893,95.438,540.893,538.623,0.0
53919.0,STARLINK-5023,PAYLOAD,2024-04-28 10:47:45,15.08835834,0.0001467,53.2155,127.703,91.4579,268.6581,-2.5485e-05,-6.93e-06,0.0,0 STARLINK-5023,1 53919U 22119AK  24119.44983597 -.00000693  00000-0 -25485-4 0  9996,2 53919  53.2155 127.7030 0001467  91.4579 268.6581 15.08835834 89135,6917.893,95.438,540.773,538.743,0.0
